{
"type": "FeatureCollection",
"name": "siberia",
"crs": { "type": "name", "properties": { "name": "urn:ogc:def:crs:OGC:1.3:CRS84" } },
"features": [
{ "type": "Feature", "properties": { "name_ru": "Абакан", "name_en": null, "type": "троллейбус" }, "geometry": { "type": "Polygon", "coordinates": [ [ [ 91.391, 53.758 ], [ 91.475, 53.744 ], [ 91.494, 53.71 ], [ 91.479, 53.707 ], [ 91.396, 53.664 ], [ 91.369, 53.706 ], [ 91.391, 53.758 ] ] ] } },
{ "type": "Feature", "properties": { "name_ru": "Ангарск", "name_en": null, "type": "tram" }, "geometry": { "type": "Polygon", "coordinates": [ [ [ 103.825, 52.502 ], [ 103.847, 52.49 ], [ 103.95, 52.522 ], [ 103.955, 52.551 ], [ 103.942, 52.574 ], [ 103.891, 52.586 ], [ 103.866, 52.571 ], [ 103.825, 52.502 ] ] ] } },
{ "type": "Feature", "properties": { "name_ru": "Ачинск", "name_en": "Achinsk", "type": "tram" }, "geometry": { "type": "Polygon", "coordinates": [ [ [ 90.497, 56.283 ], [ 90.532, 56.268 ], [ 90.431, 56.208 ], [ 90.37, 56.225 ], [ 90.397, 56.249 ], [ 90.497, 56.283 ] ] ] } },
{ "type": "Feature", "properties": { "name_ru": "Барнаул", "name_en": null, "type": "tram" }, "geometry": { "type": "Polygon", "coordinates": [ [ [ 83.744, 53.264 ], [ 83.805, 53.33 ], [ 83.745, 53.405 ], [ 83.63, 53.394 ], [ 83.602, 53.312 ], [ 83.744, 53.264 ] ] ] } },
{ "type": "Feature", "properties": { "name_ru": "Барнаул", "name_en": null, "type": "trolleybus" }, "geometry": { "type": "Polygon", "coordinates": [ [ [ 83.82, 53.313 ], [ 83.649, 53.343 ], [ 83.654, 53.396 ], [ 83.764, 53.399 ], [ 83.82, 53.313 ] ] ] } },
{ "type": "Feature", "properties": { "name_ru": "Бийск", "name_en": null, "type": "tram" }, "geometry": { "type": "Polygon", "coordinates": [ [ [ 85.148, 52.524 ], [ 85.144, 52.532 ], [ 85.179, 52.542 ], [ 85.248, 52.561 ], [ 85.288, 52.532 ], [ 85.162, 52.518 ], [ 85.165, 52.51 ], [ 85.142, 52.504 ], [ 85.146, 52.486 ], [ 85.055, 52.479 ], [ 85.052, 52.484 ], [ 85.061, 52.5 ], [ 85.148, 52.524 ] ] ] } },
{ "type": "Feature", "properties": { "name_ru": "Братск", "name_en": null, "type": "trolleybus" }, "geometry": { "type": "Polygon", "coordinates": [ [ [ 101.598, 56.18 ], [ 101.664, 56.167 ], [ 101.652, 56.111 ], [ 101.585, 56.12 ], [ 101.582, 56.157 ], [ 101.598, 56.18 ] ] ] } },
{ "type": "Feature", "properties": { "name_ru": "Владивосток", "name_en": null, "type": "tram" }, "geometry": { "type": "Polygon", "coordinates": [ [ [ 131.987, 43.087 ], [ 131.942, 43.132 ], [ 131.897, 43.128 ], [ 131.89, 43.095 ], [ 131.987, 43.087 ] ] ] } },
{ "type": "Feature", "properties": { "name_ru": "Владивосток", "name_en": null, "type": "trolleybus" }, "geometry": { "type": "Polygon", "coordinates": [ [ [ 131.946, 43.18 ], [ 131.945, 43.163 ], [ 131.917, 43.159 ], [ 131.9, 43.16 ], [ 131.897, 43.174 ], [ 131.946, 43.18 ] ] ] } },
{ "type": "Feature", "properties": { "name_ru": "Иркутск", "name_en": null, "type": "tram" }, "geometry": { "type": "Polygon", "coordinates": [ [ [ 104.246, 52.26 ], [ 104.368, 52.251 ], [ 104.363, 52.299 ], [ 104.241, 52.3 ], [ 104.246, 52.26 ] ] ] } },
{ "type": "Feature", "properties": { "name_ru": "Иркутск", "name_en": null, "type": "trolleybus" }, "geometry": { "type": "Polygon", "coordinates": [ [ [ 104.202, 52.247 ], [ 104.318, 52.22 ], [ 104.361, 52.258 ], [ 104.331, 52.332 ], [ 104.295, 52.333 ], [ 104.181, 52.27 ], [ 104.202, 52.247 ] ] ] } },
{ "type": "Feature", "properties": { "name_ru": "Кемерово", "name_en": null, "type": "tram" }, "geometry": { "type": "Polygon", "coordinates": [ [ [ 86.136, 55.427 ], [ 86.173, 55.315 ], [ 86.062, 55.302 ], [ 85.98, 55.344 ], [ 85.98, 55.402 ], [ 86.097, 55.429 ], [ 86.136, 55.427 ] ] ] } },
{ "type": "Feature", "properties": { "name_ru": "Кемерово", "name_en": null, "type": "trolleybus" }, "geometry": { "type": "Polygon", "coordinates": [ [ [ 86.12, 55.411 ], [ 86.153, 55.361 ], [ 86.178, 55.366 ], [ 86.188, 55.307 ], [ 86.066, 55.306 ], [ 85.965, 55.34 ], [ 85.977, 55.401 ], [ 86.12, 55.411 ] ] ] } },
{ "type": "Feature", "properties": { "name_ru": "Красноярск", "name_en": null, "type": "tram" }, "geometry": { "type": "Polygon", "coordinates": [ [ [ 93.034, 56.028 ], [ 93.046, 55.995 ], [ 92.914, 55.972 ], [ 92.883, 55.976 ], [ 92.874, 55.995 ], [ 92.94, 56.013 ], [ 93.034, 56.028 ] ] ] } },
{ "type": "Feature", "properties": { "name_ru": "Красноярск", "name_en": null, "type": "trolleybus" }, "geometry": { "type": "Polygon", "coordinates": [ [ [ 93.026, 56.088 ], [ 93.004, 56.057 ], [ 92.906, 56.006 ], [ 92.832, 55.996 ], [ 92.758, 56.013 ], [ 92.757, 56.028 ], [ 93.026, 56.088 ] ] ] } },
{ "type": "Feature", "properties": { "name_ru": "Ленинск-Кузнецкий", "name_en": null, "type": "trolleybus" }, "geometry": { "type": "Polygon", "coordinates": [ [ [ 86.226, 54.706 ], [ 86.167, 54.656 ], [ 86.145, 54.663 ], [ 86.2, 54.709 ], [ 86.226, 54.706 ] ] ] } },
{ "type": "Feature", "properties": { "name_ru": "Новокузнеце", "name_en": null, "type": "tram" }, "geometry": { "type": "Polygon", "coordinates": [ [ [ 87.324, 53.789 ], [ 87.13, 53.735 ], [ 87.068, 53.743 ], [ 87.082, 53.793 ], [ 87.204, 53.807 ], [ 87.324, 53.789 ] ] ] } },
{ "type": "Feature", "properties": { "name_ru": "Новокузнецк", "name_en": null, "type": "trolleybus" }, "geometry": { "type": "Polygon", "coordinates": [ [ [ 87.106, 53.746 ], [ 87.126, 53.738 ], [ 87.154, 53.733 ], [ 87.203, 53.748 ], [ 87.194, 53.76 ], [ 87.137, 53.783 ], [ 87.104, 53.784 ], [ 87.106, 53.746 ] ] ] } },
{ "type": "Feature", "properties": { "name_ru": "Новосибирск", "name_en": null, "type": "tram" }, "geometry": { "type": "Polygon", "coordinates": [ [ [ 83.018, 55.076 ], [ 83.031, 55.037 ], [ 82.97, 54.957 ], [ 82.94, 54.931 ], [ 82.829, 54.939 ], [ 82.781, 54.978 ], [ 82.845, 55.065 ], [ 82.953, 55.097 ], [ 83.018, 55.076 ] ] ] } },
{ "type": "Feature", "properties": { "name_ru": "Новосибирск", "name_en": null, "type": "trolleybus" }, "geometry": { "type": "Polygon", "coordinates": [ [ [ 82.777, 54.999 ], [ 82.831, 54.936 ], [ 82.941, 54.931 ], [ 83.0, 54.959 ], [ 83.02, 55.035 ], [ 82.998, 55.091 ], [ 82.887, 55.089 ], [ 82.777, 54.999 ] ] ] } },
{ "type": "Feature", "properties": { "name_ru": "Омск", "name_en": null, "type": "tram" }, "geometry": { "type": "Polygon", "coordinates": [ [ [ 73.31, 55.064 ], [ 73.444, 55.027 ], [ 73.453, 54.976 ], [ 73.41, 54.933 ], [ 73.37, 54.93 ], [ 73.298, 55.03 ], [ 73.31, 55.064 ] ] ] } },
{ "type": "Feature", "properties": { "name_ru": "Омск", "name_en": null, "type": "trolleybus" }, "geometry": { "type": "Polygon", "coordinates": [ [ [ 73.234, 55.064 ], [ 73.291, 55.065 ], [ 73.458, 54.994 ], [ 73.482, 54.984 ], [ 73.466, 54.905 ], [ 73.432, 54.902 ], [ 73.209, 54.992 ], [ 73.234, 55.064 ] ] ] } },
{ "type": "Feature", "properties": { "name_ru": "Осинники", "name_en": null, "type": "tram" }, "geometry": { "type": "Polygon", "coordinates": [ [ [ 87.32, 53.59 ], [ 87.34, 53.589 ], [ 87.368, 53.631 ], [ 87.354, 53.632 ], [ 87.31, 53.624 ], [ 87.32, 53.59 ] ] ] } },
{ "type": "Feature", "properties": { "name_ru": "Прокопьевск", "name_en": null, "type": "tram" }, "geometry": { "type": "Polygon", "coordinates": [ [ [ 86.846, 53.891 ], [ 86.749, 53.868 ], [ 86.61, 53.848 ], [ 86.587, 53.881 ], [ 86.644, 53.92 ], [ 86.805, 53.92 ], [ 86.846, 53.891 ] ] ] } },
{ "type": "Feature", "properties": { "name_ru": "Рубцовск", "name_en": null, "type": "trolleybus" }, "geometry": { "type": "Polygon", "coordinates": [ [ [ 81.226, 51.474 ], [ 81.239, 51.536 ], [ 81.209, 51.543 ], [ 81.174, 51.483 ], [ 81.226, 51.474 ] ] ] } },
{ "type": "Feature", "properties": { "name_ru": "Томск", "name_en": null, "type": "tram" }, "geometry": { "type": "Polygon", "coordinates": [ [ [ 85.026, 56.48 ], [ 84.981, 56.447 ], [ 84.934, 56.462 ], [ 84.931, 56.511 ], [ 84.948, 56.535 ], [ 84.965, 56.536 ], [ 85.026, 56.48 ] ] ] } },
{ "type": "Feature", "properties": { "name_ru": "Томск", "name_en": null, "type": "trolleybus" }, "geometry": { "type": "Polygon", "coordinates": [ [ [ 85.108, 56.523 ], [ 84.998, 56.45 ], [ 84.966, 56.451 ], [ 84.933, 56.465 ], [ 84.923, 56.53 ], [ 85.108, 56.523 ] ] ] } },
{ "type": "Feature", "properties": { "name_ru": "Улан-Удэ", "name_en": null, "type": "tram" }, "geometry": { "type": "Polygon", "coordinates": [ [ [ 107.575, 51.863 ], [ 107.68, 51.845 ], [ 107.693, 51.828 ], [ 107.681, 51.806 ], [ 107.647, 51.794 ], [ 107.593, 51.791 ], [ 107.546, 51.84 ], [ 107.575, 51.863 ] ] ] } },
{ "type": "Feature", "properties": { "name_ru": "Усолье-Сибирское", "name_en": null, "type": "tram" }, "geometry": { "type": "Polygon", "coordinates": [ [ [ 103.65, 52.724 ], [ 103.679, 52.738 ], [ 103.631, 52.785 ], [ 103.595, 52.77 ], [ 103.65, 52.724 ] ] ] } },
{ "type": "Feature", "properties": { "name_ru": "Усть-Илимск", "name_en": null, "type": "tram" }, "geometry": { "type": "Polygon", "coordinates": [ [ [ 102.734, 57.928 ], [ 102.741, 57.927 ], [ 102.783, 57.987 ], [ 102.803, 58.027 ], [ 102.808, 58.055 ], [ 102.792, 58.053 ], [ 102.73, 57.932 ], [ 102.734, 57.928 ] ] ] } },
{ "type": "Feature", "properties": { "name_ru": "Хабаровск", "name_en": null, "type": "tram" }, "geometry": { "type": "Polygon", "coordinates": [ [ [ 135.038, 48.571 ], [ 135.138, 48.459 ], [ 135.147, 48.389 ], [ 135.085, 48.361 ], [ 135.028, 48.495 ], [ 135.022, 48.553 ], [ 135.038, 48.571 ] ] ] } },
{ "type": "Feature", "properties": { "name_ru": "Хабаровск", "name_en": null, "type": "trolleybus" }, "geometry": { "type": "Polygon", "coordinates": [ [ [ 135.174, 48.538 ], [ 135.189, 48.521 ], [ 135.136, 48.441 ], [ 135.099, 48.438 ], [ 135.04, 48.472 ], [ 135.039, 48.505 ], [ 135.174, 48.538 ] ] ] } },
{ "type": "Feature", "properties": { "name_ru": "Черёмушки", "name_en": null, "type": "tram" }, "geometry": { "type": "Polygon", "coordinates": [ [ [ 91.427, 52.869 ], [ 91.431, 52.851 ], [ 91.411, 52.833 ], [ 91.379, 52.825 ], [ 91.357, 52.831 ], [ 91.401, 52.867 ], [ 91.427, 52.869 ] ] ] } },
{ "type": "Feature", "properties": { "name_ru": "Чита", "name_en": null, "type": "trolleybus" }, "geometry": { "type": "Polygon", "coordinates": [ [ [ 113.484, 52.078 ], [ 113.538, 52.041 ], [ 113.557, 52.025 ], [ 113.545, 52.012 ], [ 113.494, 52.01 ], [ 113.435, 52.029 ], [ 113.484, 52.078 ] ] ] } }
]
}
